start=new Date('2022-09-30T00:00:00.000Z').valueOf();
sats=[{"ARG_OF_PERICENTER":"43.4808","ECCENTRICITY":"0.00019130","FILE":"3587117","COUNTRY_CODE":"US","NORAD_CAT_ID":"52683","SEMIMAJOR_AXIS":"6917.956","INCLINATION":"53.2156","MEAN_ELEMENT_THEORY":"SGP4","TIME_SYSTEM":"UTC","EPHEMERIS_TYPE":"0","REV_AT_EPOCH":"2138","MEAN_MOTION_DOT":"-0.00004314","CENTER_NAME":"EARTH","APOAPSIS":"541.144","PERIAPSIS":"538.498","REF_FRAME":"TEME","RA_OF_ASC_NODE":"26.6649","EPOCH":"2022-09-29T18:21:11.772576","CLASSIFICATION_TYPE":"U","LAUNCH_DATE":"2022-05-18","OBJECT_TYPE":"PAYLOAD","DECAY_DATE":null,"RCS_SIZE":"LARGE","GP_ID":"213839112","TLE_LINE1":"1 52683U 22053AD  22272.76471959 -.00004314  00000-0 -25324-3 0  9992","TLE_LINE2":"2 52683  53.2156  26.6649 0001913  43.4808 316.6334 15.08815265 21383","MEAN_ANOMALY":"316.6334","OBJECT_ID":"2022-053AD","MEAN_MOTION_DDOT":"0.0000000000000","OBJECT_NAME":"STARLINK-4039","ELEMENT_SET_NO":"999","MEAN_MOTION":"15.08815265","SITE":"AFETR","PERIOD":"95.439","BSTAR":"-0.00025324000000"},{"ELEMENT_SET_NO":"999","MEAN_MOTION_DDOT":"0.0000000000000","OBJECT_NAME":"STARLINK-4014","PERIOD":"95.438","SITE":"AFETR","MEAN_MOTION":"15.08832301","BSTAR":"-0.00002400900000","OBJECT_ID":"2022-053AE","TLE_LINE2":"2 52684  53.2182  26.3069 0001743  59.3102 300.8062 15.08832301 21002","GP_ID":"213810487","TLE_LINE1":"1 52684U 22053AE  22272.84566636 -.00000670  00000-0 -24009-4 0  9990","MEAN_ANOMALY":"300.8062","DECAY_DATE":null,"RCS_SIZE":"LARGE","EPOCH":"2022-09-29T20:17:45.573504","CLASSIFICATION_TYPE":"U","RA_OF_ASC_NODE":"26.3069","LAUNCH_DATE":"2022-05-18","OBJECT_TYPE":"PAYLOAD","TIME_SYSTEM":"UTC","REV_AT_EPOCH":"2100","MEAN_MOTION_DOT":"-0.00000670","EPHEMERIS_TYPE":"0","APOAPSIS":"540.975","CENTER_NAME":"EARTH","REF_FRAME":"TEME","PERIAPSIS":"538.563","COUNTRY_CODE":"US","NORAD_CAT_ID":"52684","INCLINATION":"53.2182","SEMIMAJOR_AXIS":"6917.904","MEAN_ELEMENT_THEORY":"SGP4","ARG_OF_PERICENTER":"59.3102","ECCENTRICITY":"0.00017430","FILE":"3586970"},{"DECAY_DATE":null,"RCS_SIZE":"LARGE","TLE_LINE2":"2 52685  53.2186  26.3985 0001804  47.6087 312.5058 15.08833887 21379","TLE_LINE1":"1 52685U 22053AF  22272.82357305 -.00003453  00000-0 -19900-3 0  9995","GP_ID":"213839497","MEAN_ANOMALY":"312.5058","OBJECT_ID":"2022-053AF","ELEMENT_SET_NO":"999","OBJECT_NAME":"STARLINK-4029","MEAN_MOTION_DDOT":"0.0000000000000","PERIOD":"95.438","SITE":"AFETR","MEAN_MOTION":"15.08833887","BSTAR":"-0.00019900000000","ARG_OF_PERICENTER":"47.6087","ECCENTRICITY":"0.00018040","FILE":"3587117","COUNTRY_CODE":"US","NORAD_CAT_ID":"52685","INCLINATION":"53.2186","SEMIMAJOR_AXIS":"6917.899","MEAN_ELEMENT_THEORY":"SGP4","TIME_SYSTEM":"UTC","REV_AT_EPOCH":"2137","MEAN_MOTION_DOT":"-0.00003453","EPHEMERIS_TYPE":"0","APOAPSIS":"541.012","CENTER_NAME":"EARTH","REF_FRAME":"TEME","PERIAPSIS":"538.516","EPOCH":"2022-09-29T19:45:56.711520","CLASSIFICATION_TYPE":"U","RA_OF_ASC_NODE":"26.3985","LAUNCH_DATE":"2022-05-18","OBJECT_TYPE":"PAYLOAD"},{"MEAN_ANOMALY":"311.0808","TLE_LINE1":"1 52686U 22053AG  22272.70213385  .00002630  00000-0  18323-3 0  9994","GP_ID":"213838789","TLE_LINE2":"2 52686  53.2178  26.9522 0001571  49.0320 311.0808 15.08851131 21369","RCS_SIZE":"LARGE","DECAY_DATE":null,"BSTAR":"0.00018323000000","OBJECT_NAME":"STARLINK-4005","MEAN_MOTION_DDOT":"0.0000000000000","ELEMENT_SET_NO":"999","MEAN_MOTION":"15.08851131","SITE":"AFETR","PERIOD":"95.437","OBJECT_ID":"2022-053AG","INCLINATION":"53.2178","SEMIMAJOR_AXIS":"6917.846","MEAN_ELEMENT_THEORY":"SGP4","COUNTRY_CODE":"US","NORAD_CAT_ID":"52686","FILE":"3587117","ARG_OF_PERICENTER":"49.0320","ECCENTRICITY":"0.00015710","LAUNCH_DATE":"2022-05-18","OBJECT_TYPE":"PAYLOAD","RA_OF_ASC_NODE":"26.9522","EPOCH":"2022-09-29T16:51:04.364640","CLASSIFICATION_TYPE":"U","CENTER_NAME":"EARTH","APOAPSIS":"540.798","PERIAPSIS":"538.625","REF_FRAME":"TEME","TIME_SYSTEM":"UTC","EPHEMERIS_TYPE":"0","MEAN_MOTION_DOT":"0.00002630","REV_AT_EPOCH":"2136"},{"TLE_LINE2":"2 52687  53.2218  27.9053 0001863  49.8825 310.2331 15.08830368 20952","GP_ID":"213777831","TLE_LINE1":"1 52687U 22053AH  22272.48869815 -.00005871  00000-0 -35114-3 0  9994","MEAN_ANOMALY":"310.2331","DECAY_DATE":null,"RCS_SIZE":"LARGE","SITE":"AFETR","PERIOD":"95.438","MEAN_MOTION":"15.08830368","ELEMENT_SET_NO":"999","MEAN_MOTION_DDOT":"0.0000000000000","OBJECT_NAME":"STARLINK-3981","BSTAR":"-0.00035114000000","OBJECT_ID":"2022-053AH","NORAD_CAT_ID":"52687","COUNTRY_CODE":"US","MEAN_ELEMENT_THEORY":"SGP4","SEMIMAJOR_AXIS":"6917.910","INCLINATION":"53.2218","ECCENTRICITY":"0.00018630","ARG_OF_PERICENTER":"49.8825","FILE":"3586671","RA_OF_ASC_NODE":"27.9053","EPOCH":"2022-09-29T11:43:43.520160","CLASSIFICATION_TYPE":"U","OBJECT_TYPE":"PAYLOAD","LAUNCH_DATE":"2022-05-18","MEAN_MOTION_DOT":"-0.00005871","REV_AT_EPOCH":"2095","EPHEMERIS_TYPE":"0","TIME_SYSTEM":"UTC","REF_FRAME":"TEME","PERIAPSIS":"538.486","APOAPSIS":"541.064","CENTER_NAME":"EARTH"},{"TLE_LINE2":"2 52688  53.2206  26.9717 0002206  52.0097 308.1094 15.08811224 21352","GP_ID":"213838951","TLE_LINE1":"1 52688U 22053AJ  22272.69575645 -.00001940  00000-0 -10392-3 0  9997","MEAN_ANOMALY":"308.1094","DECAY_DATE":null,"RCS_SIZE":"LARGE","ELEMENT_SET_NO":"999","MEAN_MOTION_DDOT":"0.0000000000000","OBJECT_NAME":"STARLINK-4032","PERIOD":"95.439","SITE":"AFETR","MEAN_MOTION":"15.08811224","BSTAR":"-0.00010392000000","OBJECT_ID":"2022-053AJ","COUNTRY_CODE":"US","NORAD_CAT_ID":"52688","SEMIMAJOR_AXIS":"6917.968","INCLINATION":"53.2206","MEAN_ELEMENT_THEORY":"SGP4","ARG_OF_PERICENTER":"52.0097","ECCENTRICITY":"0.00022060","FILE":"3587117","CLASSIFICATION_TYPE":"U","EPOCH":"2022-09-29T16:41:53.357280","RA_OF_ASC_NODE":"26.9717","LAUNCH_DATE":"2022-05-18","OBJECT_TYPE":"PAYLOAD","TIME_SYSTEM":"UTC","REV_AT_EPOCH":"2135","MEAN_MOTION_DOT":"-0.00001940","EPHEMERIS_TYPE":"0","APOAPSIS":"541.359","CENTER_NAME":"EARTH","REF_FRAME":"TEME","PERIAPSIS":"538.307"},{"COUNTRY_CODE":"US","NORAD_CAT_ID":"52689","SEMIMAJOR_AXIS":"6917.922","INCLINATION":"53.2204","MEAN_ELEMENT_THEORY":"SGP4","ARG_OF_PERICENTER":"36.9236","ECCENTRICITY":"0.00019250","FILE":"3587117","RA_OF_ASC_NODE":"26.7710","EPOCH":"2022-09-29T17:49:23.428128","CLASSIFICATION_TYPE":"U","LAUNCH_DATE":"2022-05-18","OBJECT_TYPE":"PAYLOAD","TIME_SYSTEM":"UTC","EPHEMERIS_TYPE":"0","MEAN_MOTION_DOT":"-0.00002750","REV_AT_EPOCH":"2139","CENTER_NAME":"EARTH","APOAPSIS":"541.119","PERIAPSIS":"538.456","REF_FRAME":"TEME","GP_ID":"213839268","TLE_LINE1":"1 52689U 22053AK  22272.74263227 -.00002750  00000-0 -15477-3 0  9993","TLE_LINE2":"2 52689  53.2204  26.7710 0001925  36.9236 323.1889 15.08826317 21397","MEAN_ANOMALY":"323.1889","DECAY_DATE":null,"RCS_SIZE":"LARGE","OBJECT_NAME":"STARLINK-4078","MEAN_MOTION_DDOT":"0.0000000000000","ELEMENT_SET_NO":"999","MEAN_MOTION":"15.08826317","SITE":"AFETR","PERIOD":"95.438","BSTAR":"-0.00015477000000","OBJECT_ID":"2022-053AK"},{"PERIAPSIS":"538.788","REF_FRAME":"TEME","CENTER_NAME":"EARTH","APOAPSIS":"540.740","EPHEMERIS_TYPE":"0","MEAN_MOTION_DOT":"-0.00002187","REV_AT_EPOCH":"2095","TIME_SYSTEM":"UTC","OBJECT_TYPE":"PAYLOAD","LAUNCH_DATE":"2022-05-18","RA_OF_ASC_NODE":"27.8745","EPOCH":"2022-09-29T11:54:20.535264","CLASSIFICATION_TYPE":"U","FILE":"3586672","ECCENTRICITY":"0.00014110","ARG_OF_PERICENTER":"70.5081","MEAN_ELEMENT_THEORY":"SGP4","SEMIMAJOR_AXIS":"6917.899","INCLINATION":"53.2209","NORAD_CAT_ID":"52690","COUNTRY_CODE":"US","OBJECT_ID":"2022-053AL","BSTAR":"-0.00011938000000","MEAN_MOTION":"15.08833825","PERIOD":"95.438","SITE":"AFETR","MEAN_MOTION_DDOT":"0.0000000000000","OBJECT_NAME":"STARLINK-4035","ELEMENT_SET_NO":"999","RCS_SIZE":"LARGE","DECAY_DATE":null,"MEAN_ANOMALY":"289.6064","GP_ID":"213777366","TLE_LINE1":"1 52690U 22053AL  22272.49607101 -.00002187  00000-0 -11938-3 0  9992","TLE_LINE2":"2 52690  53.2209  27.8745 0001411  70.5081 289.6064 15.08833825 20950"},{"MEAN_ELEMENT_THEORY":"SGP4","INCLINATION":"53.2233","SEMIMAJOR_AXIS":"6918.012","NORAD_CAT_ID":"52691","COUNTRY_CODE":"US","FILE":"3587117","ECCENTRICITY":"0.00020490","ARG_OF_PERICENTER":"49.0088","OBJECT_TYPE":"PAYLOAD","LAUNCH_DATE":"2022-05-18","EPOCH":"2022-09-29T19:19:28.339968","CLASSIFICATION_TYPE":"U","RA_OF_ASC_NODE":"26.4836","REF_FRAME":"TEME","PERIAPSIS":"538.460","APOAPSIS":"541.295","CENTER_NAME":"EARTH","REV_AT_EPOCH":"2140","MEAN_MOTION_DOT":"0.00010638","EPHEMERIS_TYPE":"0","TIME_SYSTEM":"UTC","MEAN_ANOMALY":"311.1081","TLE_LINE2":"2 52691  53.2233  26.4836 0002049  49.0088 311.1081 15.08796787 21406","TLE_LINE1":"1 52691U 22053AM  22272.80518912  .00010638  00000-0  68628-3 0  9995","GP_ID":"213839113","RCS_SIZE":"LARGE","DECAY_DATE":null,"BSTAR":"0.00068628000000","SITE":"AFETR","PERIOD":"95.440","MEAN_MOTION":"15.08796787","ELEMENT_SET_NO":"999","MEAN_MOTION_DDOT":"0.0000000000000","OBJECT_NAME":"STARLINK-3945","OBJECT_ID":"2022-053AM"},{"BSTAR":"-0.00018322000000","PERIOD":"95.439","SITE":"AFETR","MEAN_MOTION":"15.08823391","ELEMENT_SET_NO":"999","MEAN_MOTION_DDOT":"0.0000000000000","OBJECT_NAME":"STARLINK-3993","OBJECT_ID":"2022-053AN","MEAN_ANOMALY":"287.7913","TLE_LINE2":"2 52692  53.2184  27.9181 0001467  72.3239 287.7913 15.08823391 20954","TLE_LINE1":"1 52692U 22053AN  22272.48501528 -.00003201  00000-0 -18322-3 0  9991","GP_ID":"213777852","RCS_SIZE":"LARGE","DECAY_DATE":null,"OBJECT_TYPE":"PAYLOAD","LAUNCH_DATE":"2022-05-18","RA_OF_ASC_NODE":"27.9181","EPOCH":"2022-09-29T11:38:25.320192","CLASSIFICATION_TYPE":"U","REF_FRAME":"TEME","PERIAPSIS":"538.781","APOAPSIS":"540.811","CENTER_NAME":"EARTH","MEAN_MOTION_DOT":"-0.00003201","REV_AT_EPOCH":"2095","EPHEMERIS_TYPE":"0","TIME_SYSTEM":"UTC","MEAN_ELEMENT_THEORY":"SGP4","SEMIMAJOR_AXIS":"6917.931","INCLINATION":"53.2184","NORAD_CAT_ID":"52692","COUNTRY_CODE":"US","FILE":"3586673","ECCENTRICITY":"0.00014670","ARG_OF_PERICENTER":"72.3239"}];
